OBJECT_NAME,OBJECT_ID,EPOCH,MEAN_MOTION,ECCENTRICITY,INCLINATION,RA_OF_ASC_NODE,ARG_OF_PERICENTER,MEAN_ANOMALY,EPHEMERIS_TYPE,CLASSIFICATION_TYPE,NORAD_CAT_ID,ELEMENT_SET_NO,REV_AT_EPOCH,BSTAR,MEAN_MOTION_DOT,MEAN_MOTION_DDOT
ONEWEB-0410,2022-012A,2026-06-11T14:21:07.314048,13.17648245,.0003144,87.9146,6.9687,79.0970,281.0516,0,U,51622,999,21296,.7542E-4,.42E-6,0
ONEWEB-0411,2022-012B,2026-06-11T16:01:51.821760,13.10370078,.0001571,87.8842,37.3657,99.4831,260.6474,0,U,51623,999,20856,-.1118778E-2,-.378E-5,0
ONEWEB-0415,2022-012C,2026-06-11T15:57:05.595840,13.10369901,.00017668,87.8836,37.3655,90.3566,269.7764,0,U,51624,999,20856,-.56681297E-3,-.185E-5,0
ONEWEB-0416,2022-012D,2026-06-11T16:13:49.454976,13.10372312,.0001992,87.8836,37.3816,94.7374,265.3981,0,U,51625,999,20860,-.17474167E-2,-.597E-5,0
ONEWEB-0422,2022-012E,2026-06-11T14:35:42.567648,13.17648577,.0001257,87.9142,6.9680,78.5445,281.5828,0,U,51626,999,21307,.51552E-4,.33E-6,0
ONEWEB-0423,2022-012F,2026-06-11T14:25:59.774592,13.17649839,.0001927,87.9139,6.9751,84.2012,275.9339,0,U,51627,999,21296,.99192E-4,.51E-6,0
ONEWEB-0425,2022-012G,2026-06-11T16:28:10.339392,13.10374806,.00021016,87.8840,37.3632,78.0921,282.0442,0,U,51628,999,20860,-.15746229E-2,-.537E-5,0
ONEWEB-0428,2022-012H,2026-06-11T15:59:28.628448,13.10370179,.00017717,87.8833,37.3740,80.7689,279.3638,0,U,51629,999,20856,-.99613486E-3,-.335E-5,0
ONEWEB-0431,2022-012J,2026-06-11T15:16:16.691520,13.10374317,.00013825,87.8840,37.3724,99.7655,260.3628,0,U,51630,999,20861,.19011295E-2,.676E-5,0
ONEWEB-0434,2022-012K,2026-06-11T16:33:08.755488,13.10375051,.00023709,87.8845,37.3868,73.8908,286.2480,0,U,51631,999,20860,-.11850385E-2,-.401E-5,0
ONEWEB-0435,2022-012L,2026-06-11T14:54:55.813248,13.10373862,.00014346,87.8837,37.3870,79.9405,280.1885,0,U,51632,999,20858,.88242147E-4,.43E-6,0
ONEWEB-0436,2022-012M,2026-06-11T14:13:49.780128,13.17648398,.0001642,87.9145,6.9583,86.8719,273.2600,0,U,51633,999,21294,-.80089E-4,-.18E-6,0
ONEWEB-0438,2022-012N,2026-06-11T16:20:59.345088,13.10373218,.00019903,87.8838,37.3777,80.3710,279.7643,0,U,51634,999,20862,-.18875183E-2,-.646E-5,0
ONEWEB-0439,2022-012P,2026-06-11T16:25:47.286912,13.10370901,.00018163,87.8837,37.3648,81.6083,278.5250,0,U,51635,999,20860,-.13074736E-4,.8E-7,0
ONEWEB-0442,2022-012Q,2026-06-11T23:09:38.662848,13.17649090,.00024034,87.9137,6.9170,83.8096,276.3309,0,U,51636,999,21298,.18757667E-4,.2E-6,0
ONEWEB-0443,2022-012R,2026-06-11T14:30:50.281632,13.17649144,.0001862,87.9134,6.9902,76.2619,283.8719,0,U,51637,999,21298,.15917E-3,.75E-6,0
ONEWEB-0444,2022-012S,2026-06-11T16:11:25.629216,13.10371932,.00018291,87.8835,37.3650,76.6969,283.4362,0,U,51638,999,20861,-.18295614E-2,-.626E-5,0
ONEWEB-0445,2022-012T,2026-06-11T16:42:31.154688,13.10375544,.00018169,87.8848,37.3488,88.7869,271.3466,0,U,51639,999,20862,-.34769875E-3,-.109E-5,0
ONEWEB-0446,2022-012U,2026-06-11T16:09:01.891584,13.10371619,.0001846,87.8835,37.3823,86.6782,273.4557,0,U,51640,999,20860,-.15004746E-2,-.511E-5,0
ONEWEB-0448,2022-012V,2026-06-11T16:16:12.773568,13.10373052,.00017888,87.8834,37.3779,79.1691,280.9637,0,U,51641,999,20857,-.18911867E-2,-.647E-5,0
ONEWEB-0449,2022-012W,2026-06-11T16:23:22.839072,13.10373823,.00021954,87.8840,37.3625,76.2304,283.9068,0,U,51642,999,20858,-.16971499E-2,-.58E-5,0
ONEWEB-0451,2022-012X,2026-06-11T14:08:59.211744,13.17649303,.0002044,87.9147,6.9562,82.9359,277.2005,0,U,51643,999,21292,.17045E-3,.79E-6,0
ONEWEB-0452,2022-012Y,2026-06-11T23:13:16.834944,13.17648954,.00019605,87.9137,6.9183,77.6344,282.5007,0,U,51644,999,21298,.10134245E-3,.52E-6,0
ONEWEB-0456,2022-012AA,2026-06-11T16:37:42.430944,13.10374646,.00016644,87.8849,37.3474,79.6097,280.5218,0,U,51646,999,20862,-.61903946E-3,-.203E-5,0
ONEWEB-0457,2022-012AB,2026-06-11T16:04:03.155808,13.10369422,.00021122,87.8833,37.3707,89.7866,270.3504,0,U,51647,999,20862,-.1397603E-2,-.475E-5,0
ONEWEB-0458,2022-012AC,2026-06-11T16:35:20.315904,13.10374951,.00018931,87.8849,37.3538,75.9404,284.1934,0,U,51648,999,20858,-.94531198E-3,-.317E-5,0
ONEWEB-0461,2022-012AD,2026-06-11T14:38:07.609920,13.17647612,.00019228,87.9144,6.9664,89.5395,270.5957,0,U,51649,999,21315,.10440937E-3,.53E-6,0
ONEWEB-0463,2022-012AE,2026-06-11T14:11:24.735264,13.17648660,.0001948,87.9134,6.9929,90.8071,269.3284,0,U,51650,999,21293,.13142E-3,.64E-6,0
ONEWEB-0464,2022-012AF,2026-06-11T16:30:33.218208,13.10374860,.00016375,87.8843,37.3767,73.9186,286.2122,0,U,51651,999,20860,-.13292858E-2,-.451E-5,0
ONEWEB-0468,2022-012AG,2026-06-11T14:50:10.175712,13.10375720,.00015863,87.8839,37.3846,72.7183,287.4118,0,U,51652,999,20857,-.45951057E-3,-.148E-5,0
